OBJECT_NAME,OBJECT_ID,EPOCH,MEAN_MOTION,ECCENTRICITY,INCLINATION,RA_OF_ASC_NODE,ARG_OF_PERICENTER,MEAN_ANOMALY,EPHEMERIS_TYPE,CLASSIFICATION_TYPE,NORAD_CAT_ID,ELEMENT_SET_NO,REV_AT_EPOCH,BSTAR,MEAN_MOTION_DOT,MEAN_MOTION_DDOT
IRIDIUM 156,2018-061H,2026-06-27T03:56:18.889728,14.34218984,.0002008,86.3953,52.5572,85.7801,274.3624,0,U,43576,999,41480,.76711E-4,.235E-5,0
IRIDIUM 164,2018-061J,2026-06-27T03:28:54.467040,14.34218092,.0002226,86.3954,52.6057,90.1368,270.0083,0,U,43577,999,41484,.22884E-4,.84E-6,0
IRIDIUM 159,2018-061K,2026-06-27T04:23:42.496800,14.34217694,.0002223,86.3951,52.5263,83.9433,276.2016,0,U,43578,999,41481,.82091E-5,.43E-6,0
IRIDIUM 180,2019-002A,2026-06-27T04:22:58.939968,14.34217468,.0002131,86.3972,349.4183,89.2659,270.8781,0,U,43922,999,39042,-.19648E-5,.14E-6,0
IRIDIUM 176,2019-002B,2026-06-27T00:20:31.542144,14.72226486,.0002413,86.6093,349.4305,88.4700,271.6794,0,U,43923,999,40069,.11439E-3,.745E-5,0
IRIDIUM 168,2019-002C,2026-06-27T00:52:54.532992,14.34216560,.0002234,86.3976,349.5565,90.4422,269.7030,0,U,43924,999,39038,.17333E-4,.68E-6,0
IRIDIUM 173,2019-002D,2026-06-27T00:34:38.936064,14.34217891,.0002159,86.3972,349.4504,88.5426,271.6017,0,U,43925,999,39036,.10392E-4,.49E-6,0
IRIDIUM 169,2019-002E,2026-06-27T01:25:49.878048,14.38607779,.0001677,86.4218,21.0649,83.2462,276.8927,0,U,43926,999,39164,.85785E-4,.282E-5,0
IRIDIUM 172,2019-002F,2026-06-27T00:25:30.834336,14.34216828,.0002143,86.3970,349.4610,89.7636,270.3805,0,U,43927,999,39037,-.47896E-5,.6E-7,0
IRIDIUM 175,2019-002G,2026-06-27T01:10:53.281056,14.43617856,.0003752,86.4517,286.3984,153.2213,206.9182,0,U,43928,999,40040,.82652E-4,.3E-5,0
IRIDIUM 171,2019-002H,2026-06-27T04:59:30.899328,14.34217573,.0001985,86.3980,349.6889,93.9086,266.2337,0,U,43929,999,39039,-.2837E-5,.12E-6,0
IRIDIUM 170,2019-002J,2026-06-27T00:29:25.229760,14.72226967,.0002491,86.6093,349.4304,85.9663,274.1839,0,U,43930,999,40070,.11128E-3,.726E-5,0
IRIDIUM 167,2019-002K,2026-06-27T04:50:22.905600,14.34217337,.0001894,86.3971,349.4067,97.3783,262.7628,0,U,43931,999,39039,-.1277E-4,-.16E-6,0
IRIDIUM 181,2023-068S,2026-06-27T03:49:16.538016,14.43311303,.0002429,86.4490,52.6216,87.6357,272.5122,0,U,56726,999,16387,.81661E-4,.295E-5,0
IRIDIUM 177,2023-068T,2026-06-26T22:07:50.144160,14.80039543,.0002156,86.1958,324.1675,88.0021,272.1446,0,U,56727,999,16780,.13376E-3,.1038E-4,0
IRIDIUM 174,2023-068U,2026-06-27T05:05:16.355040,14.72235031,.0002393,86.6101,349.4985,80.6291,279.5196,0,U,56728,999,16749,.12322E-3,.801E-5,0
IRIDIUM 178,2023-068V,2026-06-27T01:06:42.144768,14.80190446,.0003306,86.6563,21.2355,75.7906,284.3683,0,U,56729,999,16782,.98128E-4,.771E-5,0
IRIDIUM 179,2023-068W,2026-06-27T02:36:27.659808,14.80054793,.000243,86.6769,30.2223,87.4022,272.7478,0,U,56730,999,16783,.99971E-4,.783E-5,0
