IRIDIUM 156             
1 43576U 18061H   26178.16410752  .00000235  00000+0  76711-4 0  9996
2 43576  86.3953  52.5572 0002008  85.7801 274.3624 14.34218984414805
IRIDIUM 164             
1 43577U 18061J   26178.14507485  .00000084  00000+0  22884-4 0  9999
2 43577  86.3954  52.6057 0002226  90.1368 270.0083 14.34218092414842
IRIDIUM 159             
1 43578U 18061K   26178.18313075  .00000043  00000+0  82091-5 0  9996
2 43578  86.3951  52.5263 0002223  83.9433 276.2016 14.34217694414816
IRIDIUM 180             
1 43922U 19002A   26178.18262662  .00000014  00000+0 -19648-5 0  9997
2 43922  86.3972 349.4183 0002131  89.2659 270.8781 14.34217468390426
IRIDIUM 176             
1 43923U 19002B   26178.01425396  .00000745  00000+0  11439-3 0  9993
2 43923  86.6093 349.4305 0002413  88.4700 271.6794 14.72226486400697
IRIDIUM 168             
1 43924U 19002C   26178.03674228  .00000068  00000+0  17333-4 0  9994
2 43924  86.3976 349.5565 0002234  90.4422 269.7030 14.34216560390384
IRIDIUM 173             
1 43925U 19002D   26178.02406176  .00000049  00000+0  10392-4 0  9996
2 43925  86.3972 349.4504 0002159  88.5426 271.6017 14.34217891390364
IRIDIUM 169             
1 43926U 19002E   26178.05960507  .00000282  00000+0  85785-4 0  9990
2 43926  86.4218  21.0649 0001677  83.2462 276.8927 14.38607779391649
IRIDIUM 172             
1 43927U 19002F   26178.01771799  .00000006  00000+0 -47896-5 0  9997
2 43927  86.3970 349.4610 0002143  89.7636 270.3805 14.34216828390372
IRIDIUM 175             
1 43928U 19002G   26178.04922779  .00000300  00000+0  82652-4 0  9991
2 43928  86.4517 286.3984 0003752 153.2213 206.9182 14.43617856400404
IRIDIUM 171             
1 43929U 19002H   26178.20799652  .00000012  00000+0 -28370-5 0  9991
2 43929  86.3980 349.6889 0001985  93.9086 266.2337 14.34217573390398
IRIDIUM 170             
1 43930U 19002J   26178.02043090  .00000726  00000+0  11128-3 0  9993
2 43930  86.6093 349.4304 0002491  85.9663 274.1839 14.72226967400704
IRIDIUM 167             
1 43931U 19002K   26178.20165400 -.00000016  00000+0 -12770-4 0  9993
2 43931  86.3971 349.4067 0001894  97.3783 262.7628 14.34217337390390
IRIDIUM 181             
1 56726U 23068S   26178.15921919  .00000295  00000+0  81661-4 0  9997
2 56726  86.4490  52.6216 0002429  87.6357 272.5122 14.43311303163873
IRIDIUM 177             
1 56727U 23068T   26177.92210815  .00001038  00000+0  13376-3 0  9991
2 56727  86.1958 324.1675 0002156  88.0021 272.1446 14.80039543167802
IRIDIUM 174             
1 56728U 23068U   26178.21199485  .00000801  00000+0  12322-3 0  9991
2 56728  86.6101 349.4985 0002393  80.6291 279.5196 14.72235031167491
IRIDIUM 178             
1 56729U 23068V   26178.04632112  .00000771  00000+0  98128-4 0  9997
2 56729  86.6563  21.2355 0003306  75.7906 284.3683 14.80190446167824
IRIDIUM 179             
1 56730U 23068W   26178.10865347  .00000783  00000+0  99971-4 0  9994
2 56730  86.6769  30.2223 0002430  87.4022 272.7478 14.80054793167832
